*******************************************************************************
 Revised : May 05, 2020           NEAR Spacecraft  / (Sun)                  -93
 Web-site: Feb 10, 2013     http://near.jhuapl.edu/sci-eng.html

 BACKGROUND
  The NEAR-Shoemaker spacecraft studied the near-Earth asteroid 433 Eros from 
  orbit over one year. 230 orbits were completed before the spacecraft was set 
  down in the north pole saddle region.

  Mission objectives at Eros were to assess bulk properties: shape, composition,
  mineralogy, internal mass distribution (gravity field), and magnetic field. 
  Other studies included regolith properties, interactions with solar wind, 
  spin state, and any ongoing processes indicated by dust or gas.

  While en-route to Eros, the spacecraft flew past the asteroid 253 Mathilde at
  a distance of 1211 km, imaging 60% of its surface and determining the mass 
  parameter (GM).

  The first attempt at Eros orbit insertion failed, requiring the spacecraft
  orbit the Sun for another year before making a second, successful attempt.

  Upon completion of this first in NASA's Discovery-class series, 
  NEAR-Shoemaker became the first spacecraft to land on an asteroid, 
  where it was left.

 DATES
  Launched       : 1996-Feb-17 20:43:17 UTC Delta II 7925-8, Cape Canaveral
  Mathilde flyby : 1997-Jun-27 12:55:55 UTC @ 1210.7 km from center
  Earth flyby    : 1998-Jan-23 07:22:57 UTC @ 6910.7 km from center, 533 km alt
                     (over 47.1856 E, 33.0926 N; Iran, ~280 km east of Baghdad)
  Eros orbit insertion 
   First attempt : 1998-Dec-20 22:00 UTC (aborted)
   Rendevous burn: 2000-Feb-03 17:00 UTC
   Eros insertion: 2000-Feb-14 15:33 UTC 
  Touchdown      : 2001-Feb-12 19:44:16 UTC (bounced)
  Landing        : 2001-Feb-12 20:01:52 UTC
  Last radio comm: 2001-Feb-28~00:00 UTC

 SPACECRAFT
  Size           : octagonal, 1.7 m per side
  Launch mass    : 800 kg
  Dry mass       : 487 kg
  Power          :  400 watts @ 2.2 au (max. distance from Sun)
                   1800 watts @ 1 au
  Communications : 1.5 m X-band antenna
  Propulsion     : 450 Newton main thruster
                   Four 21 N & seven 3.5 N hyradizne thrusters
                   1450 m/s total delta-V (209 kg hydrazine 109 kg NTO oxidizer)

 TRAJECTORY
  Concatenation of JPL navigation solutions. Includes all modeling of the time;
  solar pressure, maneuver reconstruction, and Eros gravity w/spin-state soln.

  Merged solutions from JPL navigation:

  File                                 Start              Stop
  -----------------------------------  -----------------  -----------------
  p_tcm2_n0a                           1996-Feb-19 02:00  1996-Apr-02 00:00
  p_tcm2_n1d                           1996-Apr-02 00:00  1996-May-31 00:00 
  near_cruise_nav_v1                   1996-May-31 00:00  2000-Jan-01 01:00
  near_erosorbit_nav_v1                2000-Jan-01 00:00  2001-Feb-12 19:45

  Usage notes: 
   To produce output relative to 433 Eros or 253 Mathilde flight-project 
   target trajectories, specify coordinate center "@2000433" or "@2000253". 

   The mission-consistent DE403 target-body trajectory solutions used are
   "eros80" (which includes 75 30-m 1-sigma delay measurements of Eros 
   synthesized from spacecraft tracking) and "math9749".
*******************************************************************************
 
 
*******************************************************************************
Ephemeris / WWW_USER Wed May 13 07:49:45 2026 Pasadena, USA      / Horizons    
*******************************************************************************
Target body name: NEAR Shoemaker (spacecraft) (-93) {source: NEAR_merged}
Center body name: Earth (399)                     {source: NEAR_merged}
Center-site name: GEOCENTRIC
*******************************************************************************
Start time      : A.D. 1998-Jan-22 00:00:00.0000 UT      
Stop  time      : A.D. 1998-Jan-24 23:59:00.0000 UT      
Step-size       : 1 minutes
*******************************************************************************
Target pole/equ : undefined
Target radii    : undefined                                                    
Center geodetic : 0.0, 0.0, -6378.137             {E-lon(deg),Lat(deg),Alt(km)}
Center cylindric: 0.0, 0.0, 0.0                   {E-lon(deg),Dxy(km),Dz(km)}
Center pole/equ : ITRF93                          {East-longitude positive}
Center radii    : 6378.137, 6378.137, 6356.752 km {Equator_a, b, pole_c}       
Target primary  : Earth
Vis. interferer : MOON (R_eq= 1737.400) km        {source: NEAR_merged}
Rel. light bend : Sun                             {source: NEAR_merged}
Rel. lght bnd GM: 1.3271E+11 km^3/s^2                                          
Atmos refraction: NO (AIRLESS)
RA format       : HMS
Time format     : CAL 
Calendar mode   : Mixed Julian/Gregorian
EOP file        : eop.260512.p260807                                           
EOP coverage    : DATA-BASED 1962-JAN-20 TO 2026-MAY-12. PREDICTS-> 2026-AUG-06
Units conversion: 1 au= 149597870.700 km, c= 299792.458 km/s, 1 day= 86400.0 s 
Table cut-offs 1: Elevation (-90.0deg=NO ),Airmass (>38.000=NO), Daylight (NO )
Table cut-offs 2: Solar elongation (  0.0,180.0=NO ),Local Hour Angle( 0.0=NO )
Table cut-offs 3: RA/DEC angular rate (     0.0=NO )                           
Table format    : Comma Separated Values (spreadsheet)
**************************************************************************************************
 Date__(UT)__HR:MN, , , R.A.__(a-app), DEC_(a-app),  1-way_down_LT,             delta,     deldot,
**************************************************************************************************
$$SOE
 1998-Jan-22 11:40, , ,   05 22 50.95, +21 54 25.1,     0.02856631,  5.1383781557E+05, -6.9620636,
 1998-Jan-22 11:41, , ,   05 22 50.85, +21 54 29.0,     0.02854308,  5.1342005208E+05, -6.9621487,
 1998-Jan-22 11:42, , ,   05 22 50.75, +21 54 32.9,     0.02851986,  5.1300228347E+05, -6.9622339,
 1998-Jan-22 11:43, , ,   05 22 50.65, +21 54 36.8,     0.02849663,  5.1258450975E+05, -6.9623193,
 1998-Jan-22 11:44, , ,   05 22 50.55, +21 54 40.7,     0.02847341,  5.1216673090E+05, -6.9624048,
 1998-Jan-22 11:45, , ,   05 22 50.45, +21 54 44.6,     0.02845018,  5.1174894692E+05, -6.9624904,
 1998-Jan-22 11:46, , ,   05 22 50.35, +21 54 48.5,     0.02842695,  5.1133115779E+05, -6.9625762,
 1998-Jan-22 11:47, , ,   05 22 50.25, +21 54 52.5,     0.02840373,  5.1091336351E+05, -6.9626621,
 1998-Jan-22 11:48, , ,   05 22 50.15, +21 54 56.4,     0.02838050,  5.1049556407E+05, -6.9627482,
 1998-Jan-22 11:49, , ,   05 22 50.05, +21 55 00.4,     0.02835727,  5.1007775946E+05, -6.9628344,
 1998-Jan-22 11:50, , ,   05 22 49.95, +21 55 04.3,     0.02833404,  5.0965994967E+05, -6.9629207,
 1998-Jan-22 11:51, , ,   05 22 49.85, +21 55 08.3,     0.02831082,  5.0924213469E+05, -6.9630072,
 1998-Jan-22 11:52, , ,   05 22 49.75, +21 55 12.2,     0.02828759,  5.0882431452E+05, -6.9630938,
 1998-Jan-22 11:53, , ,   05 22 49.65, +21 55 16.2,     0.02826436,  5.0840648915E+05, -6.9631806,
 1998-Jan-22 11:54, , ,   05 22 49.55, +21 55 20.2,     0.02824113,  5.0798865856E+05, -6.9632676,
 1998-Jan-22 11:55, , ,   05 22 49.45, +21 55 24.2,     0.02821790,  5.0757082276E+05, -6.9633546,
 1998-Jan-22 11:56, , ,   05 22 49.34, +21 55 28.2,     0.02819467,  5.0715298172E+05, -6.9634418,
 1998-Jan-22 11:57, , ,   05 22 49.24, +21 55 32.2,     0.02817144,  5.0673513544E+05, -6.9635292,
 1998-Jan-22 11:58, , ,   05 22 49.14, +21 55 36.2,     0.02814821,  5.0631728392E+05, -6.9636167,
 1998-Jan-22 11:59, , ,   05 22 49.04, +21 55 40.2,     0.02812498,  5.0589942714E+05, -6.9637044,
 1998-Jan-22 12:00, , ,   05 22 48.93, +21 55 44.2,     0.02810175,  5.0548156510E+05, -6.9637922,
 1998-Jan-22 12:01, , ,   05 22 48.83, +21 55 48.2,     0.02807852,  5.0506369778E+05, -6.9638801,
 1998-Jan-22 12:02, , ,   05 22 48.73, +21 55 52.3,     0.02805529,  5.0464582518E+05, -6.9639682,
 1998-Jan-22 12:03, , ,   05 22 48.63, +21 55 56.3,     0.02803206,  5.0422794729E+05, -6.9640564,
 1998-Jan-22 12:04, , ,   05 22 48.52, +21 56 00.3,     0.02800882,  5.0381006410E+05, -6.9641448,
 1998-Jan-22 12:05, , ,   05 22 48.42, +21 56 04.4,     0.02798559,  5.0339217560E+05, -6.9642334,
 1998-Jan-22 12:06, , ,   05 22 48.32, +21 56 08.4,     0.02796236,  5.0297428178E+05, -6.9643221,
 1998-Jan-22 12:07, , ,   05 22 48.21, +21 56 12.5,     0.02793913,  5.0255638264E+05, -6.9644109,
 1998-Jan-22 12:08, , ,   05 22 48.11, +21 56 16.6,     0.02791589,  5.0213847816E+05, -6.9644999,
 1998-Jan-22 12:09, , ,   05 22 48.00, +21 56 20.7,     0.02789266,  5.0172056834E+05, -6.9645890,
 1998-Jan-22 12:10, , ,   05 22 47.90, +21 56 24.8,     0.02786943,  5.0130265316E+05, -6.9646783,
 1998-Jan-22 12:11, , ,   05 22 47.80, +21 56 28.8,     0.02784619,  5.0088473262E+05, -6.9647677,
 1998-Jan-22 12:12, , ,   05 22 47.69, +21 56 32.9,     0.02782296,  5.0046680670E+05, -6.9648573,
 1998-Jan-22 12:13, , ,   05 22 47.59, +21 56 37.0,     0.02779973,  5.0004887541E+05, -6.9649470,
 1998-Jan-22 12:14, , ,   05 22 47.48, +21 56 41.2,     0.02777649,  4.9963093873E+05, -6.9650369,
 1998-Jan-22 12:15, , ,   05 22 47.38, +21 56 45.3,     0.02775326,  4.9921299664E+05, -6.9651270,
 1998-Jan-22 12:16, , ,   05 22 47.27, +21 56 49.4,     0.02773002,  4.9879504915E+05, -6.9652172,
 1998-Jan-22 12:17, , ,   05 22 47.17, +21 56 53.5,     0.02770678,  4.9837709624E+05, -6.9653075,
 1998-Jan-22 12:18, , ,   05 22 47.06, +21 56 57.7,     0.02768355,  4.9795913791E+05, -6.9653980,
 1998-Jan-22 12:19, , ,   05 22 46.95, +21 57 01.8,     0.02766031,  4.9754117414E+05, -6.9654887,
 1998-Jan-22 12:20, , ,   05 22 46.85, +21 57 06.0,     0.02763708,  4.9712320493E+05, -6.9655795,
 1998-Jan-22 12:21, , ,   05 22 46.74, +21 57 10.1,     0.02761384,  4.9670523026E+05, -6.9656704,
 1998-Jan-22 12:22, , ,   05 22 46.64, +21 57 14.3,     0.02759060,  4.9628725012E+05, -6.9657615,
 1998-Jan-22 12:23, , ,   05 22 46.53, +21 57 18.5,     0.02756736,  4.9586926452E+05, -6.9658528,
 1998-Jan-22 12:24, , ,   05 22 46.42, +21 57 22.7,     0.02754413,  4.9545127343E+05, -6.9659442,
 1998-Jan-22 12:25, , ,   05 22 46.32, +21 57 26.9,     0.02752089,  4.9503327685E+05, -6.9660358,
 1998-Jan-22 12:26, , ,   05 22 46.21, +21 57 31.1,     0.02749765,  4.9461527477E+05, -6.9661275,
 1998-Jan-22 12:27, , ,   05 22 46.10, +21 57 35.3,     0.02747441,  4.9419726718E+05, -6.9662194,
 1998-Jan-22 12:28, , ,   05 22 45.99, +21 57 39.5,     0.02745117,  4.9377925408E+05, -6.9663115,
 1998-Jan-22 12:29, , ,   05 22 45.89, +21 57 43.7,     0.02742793,  4.9336123544E+05, -6.9664037,
